[{"OBJECT_NAME":"HAWK-2A","OBJECT_ID":"2021-006CW","EPOCH":"2026-03-09T16:18:25.817472","MEAN_MOTION":15.33304498,"ECCENTRICITY":0.00064498,"INCLINATION":97.2459,"RA_OF_ASC_NODE":115.6184,"ARG_OF_PERICENTER":187.1463,"MEAN_ANOMALY":172.9689,"EPHEMERIS_TYPE":0,"CLASSIFICATION_TYPE":"U","NORAD_CAT_ID":47505,"ELEMENT_SET_NO":999,"REV_AT_EPOCH":28424,"BSTAR":0.0002543136,"MEAN_MOTION_DOT":8.113e-5,"MEAN_MOTION_DDOT":0},{"OBJECT_NAME":"STARLINK-33592","OBJECT_ID":"2025-015H","EPOCH":"2026-03-09T23:26:53.343456","MEAN_MOTION":15.30219635,"ECCENTRICITY":9.632e-5,"INCLINATION":53.159,"RA_OF_ASC_NODE":321.2288,"ARG_OF_PERICENTER":127.7763,"MEAN_ANOMALY":232.3325,"EPHEMERIS_TYPE":0,"CLASSIFICATION_TYPE":"U","NORAD_CAT_ID":62765,"ELEMENT_SET_NO":999,"REV_AT_EPOCH":6439,"BSTAR":0.0011401985,"MEAN_MOTION_DOT":0.00033583,"MEAN_MOTION_DDOT":0}]
